{
  "type": "FeatureCollection",
  "features": [
    {
      "type": "Feature",
      "properties": {
        "norad_id": 38867,
        "name": "INTELSAT 23 (IS-23)",
        "group": "intelsat",
        "lat": 0.03031049403417672,
        "lon": 125.32036402277751,
        "alt_km": 35789.682035443344,
        "timestamp": "2025-12-22T05:49:03.150444+00:00",
        "meta_object_name": "INTELSAT 23 (IS-23)",
        "meta_object_id": "2012-057A",
        "meta_epoch": "2025-12-21T18:04:50.625408",
        "meta_mean_motion": 1.0026909,
        "meta_eccentricity": 6.62e-05,
        "meta_inclination": 0.0181,
        "meta_ra_of_asc_node": 69.0922,
        "meta_arg_of_pericenter": 232.4659,
        "meta_mean_anomaly": 7.241,
        "meta_ephemeris_type": 0,
        "meta_classification_type": "U",
        "meta_norad_cat_id": 38867,
        "meta_element_set_no": 999,
        "meta_rev_at_epoch": 4817,
        "meta_bstar": 0,
        "meta_mean_motion_dot": -2.62e-06,
        "meta_mean_motion_ddot": 0,
        "tle_line1": "1 38867U 12057A   25355.75336372 -.00000262  00000+0  00000+0 0  9992",
        "tle_line2": "2 38867   0.0181  69.0922 0000662 232.4659   7.2410  1.00269090 48178"
      },
      "geometry": {
        "type": "Point",
        "coordinates": [
          125.32036402277751,
          0.03031049403417672
        ]
      }
    },
    {
      "type": "Feature",
      "properties": {
        "norad_id": 39360,
        "name": "FM-6",
        "group": "intelsat",
        "lat": 0.013066556446155269,
        "lon": 62.1070444107524,
        "alt_km": 35792.59218044086,
        "timestamp": "2025-12-22T05:49:03.150456+00:00",
        "meta_object_name": "FM-6",
        "meta_object_id": "2013-058A",
        "meta_epoch": "2025-12-21T17:46:36.443712",
        "meta_mean_motion": 1.00268448,
        "meta_eccentricity": 0.0003144,
        "meta_inclination": 0.0115,
        "meta_ra_of_asc_node": 61.1402,
        "meta_arg_of_pericenter": 116.1064,
        "meta_mean_anomaly": 63.8006,
        "meta_ephemeris_type": 0,
        "meta_classification_type": "U",
        "meta_norad_cat_id": 39360,
        "meta_element_set_no": 999,
        "meta_rev_at_epoch": 4429,
        "meta_bstar": 0,
        "meta_mean_motion_dot": 6e-08,
        "meta_mean_motion_ddot": 0,
        "tle_line1": "1 39360U 13058A   25355.74069958  .00000006  00000+0  00000+0 0  9990",
        "tle_line2": "2 39360   0.0115  61.1402 0003144 116.1064  63.8006  1.00268448 44290"
      },
      "geometry": {
        "type": "Point",
        "coordinates": [
          62.1070444107524,
          0.013066556446155269
        ]
      }
    },
    {
      "type": "Feature",
      "properties": {
        "norad_id": 40271,
        "name": "INTELSAT 30 (IS-30)",
        "group": "intelsat",
        "lat": 0.03827654438244856,
        "lon": 83.25467899664015,
        "alt_km": 35779.15337826751,
        "timestamp": "2025-12-22T05:49:03.150468+00:00",
        "meta_object_name": "INTELSAT 30 (IS-30)",
        "meta_object_id": "2014-062A",
        "meta_epoch": "2025-12-21T02:28:25.779360",
        "meta_mean_motion": 1.00271873,
        "meta_eccentricity": 0.00016539,
        "meta_inclination": 0.0153,
        "meta_ra_of_asc_node": 22.7027,
        "meta_arg_of_pericenter": 68.3073,
        "meta_mean_anomaly": 300.9758,
        "meta_ephemeris_type": 0,
        "meta_classification_type": "U",
        "meta_norad_cat_id": 40271,
        "meta_element_set_no": 999,
        "meta_rev_at_epoch": 500,
        "meta_bstar": 0,
        "meta_mean_motion_dot": -1.28e-06,
        "meta_mean_motion_ddot": 0,
        "tle_line1": "1 40271U 14062A   25355.10307615 -.00000128  00000+0  00000+0 0  9990",
        "tle_line2": "2 40271   0.0153  22.7027 0001653  68.3073 300.9758  1.00271873  5003"
      },
      "geometry": {
        "type": "Point",
        "coordinates": [
          83.25467899664015,
          0.03827654438244856
        ]
      }
    },
    {
      "type": "Feature",
      "properties": {
        "norad_id": 40333,
        "name": "DIRECTV 14",
        "group": "intelsat",
        "lat": 0.0246651113223578,
        "lon": 79.08131867587073,
        "alt_km": 35785.72438158854,
        "timestamp": "2025-12-22T05:49:03.150480+00:00",
        "meta_object_name": "DIRECTV 14",
        "meta_object_id": "2014-078B",
        "meta_epoch": "2025-12-21T12:50:45.200832",
        "meta_mean_motion": 1.00270513,
        "meta_eccentricity": 2.66e-05,
        "meta_inclination": 0.0068,
        "meta_ra_of_asc_node": 38.728,
        "meta_arg_of_pericenter": 90.1802,
        "meta_mean_anomaly": 54.9144,
        "meta_ephemeris_type": 0,
        "meta_classification_type": "U",
        "meta_norad_cat_id": 40333,
        "meta_element_set_no": 999,
        "meta_rev_at_epoch": 4026,
        "meta_bstar": 0,
        "meta_mean_motion_dot": -1.03e-06,
        "meta_mean_motion_ddot": 0,
        "tle_line1": "1 40333U 14078B   25355.53524538 -.00000103  00000+0  00000+0 0  9991",
        "tle_line2": "2 40333   0.0068  38.7280 0000266  90.1802  54.9144  1.00270513 40269"
      },
      "geometry": {
        "type": "Point",
        "coordinates": [
          79.08131867587073,
          0.0246651113223578
        ]
      }
    },
    {
      "type": "Feature",
      "properties": {
        "norad_id": 40663,
        "name": "DIRECTV 15",
        "group": "intelsat",
        "lat": 0.04436550104455351,
        "lon": 75.4142251044701,
        "alt_km": 35786.63356541819,
        "timestamp": "2025-12-22T05:49:03.150491+00:00",
        "meta_object_name": "DIRECTV 15",
        "meta_object_id": "2015-026A",
        "meta_epoch": "2025-12-21T16:08:00.885408",
        "meta_mean_motion": 1.00268252,
        "meta_eccentricity": 5.12e-05,
        "meta_inclination": 0.024,
        "meta_ra_of_asc_node": 17.3667,
        "meta_arg_of_pericenter": 136.4685,
        "meta_mean_anomaly": 75.7781,
        "meta_ephemeris_type": 0,
        "meta_classification_type": "U",
        "meta_norad_cat_id": 40663,
        "meta_element_set_no": 999,
        "meta_rev_at_epoch": 3868,
        "meta_bstar": 0,
        "meta_mean_motion_dot": 0,
        "meta_mean_motion_ddot": 0,
        "tle_line1": "1 40663U 15026A   25355.67223247  .00000000  00000+0  00000+0 0  9994",
        "tle_line2": "2 40663   0.0240  17.3667 0000512 136.4685  75.7781  1.00268252 38684"
      },
      "geometry": {
        "type": "Point",
        "coordinates": [
          75.4142251044701,
          0.04436550104455351
        ]
      }
    },
    {
      "type": "Feature",
      "properties": {
        "norad_id": 40664,
        "name": "SKY MEXICO-1",
        "group": "intelsat",
        "lat": 0.040878526827043356,
        "lon": 99.54862413368579,
        "alt_km": 35796.12801340602,
        "timestamp": "2025-12-22T05:49:03.150503+00:00",
        "meta_object_name": "SKY MEXICO-1",
        "meta_object_id": "2015-026B",
        "meta_epoch": "2025-12-21T17:33:40.473216",
        "meta_mean_motion": 1.00271429,
        "meta_eccentricity": 0.000236,
        "meta_inclination": 0.0159,
        "meta_ra_of_asc_node": 354.7383,
        "meta_arg_of_pericenter": 292.5578,
        "meta_mean_anomaly": 347.9095,
        "meta_ephemeris_type": 0,
        "meta_classification_type": "U",
        "meta_norad_cat_id": 40664,
        "meta_element_set_no": 999,
        "meta_rev_at_epoch": 3867,
        "meta_bstar": 0,
        "meta_mean_motion_dot": -2.12e-06,
        "meta_mean_motion_ddot": 0,
        "tle_line1": "1 40664U 15026B   25355.73171844 -.00000212  00000+0  00000+0 0  9993",
        "tle_line2": "2 40664   0.0159 354.7383 0002360 292.5578 347.9095  1.00271429 38676"
      },
      "geometry": {
        "type": "Point",
        "coordinates": [
          99.54862413368579,
          0.040878526827043356
        ]
      }
    },
    {
      "type": "Feature",
      "properties": {
        "norad_id": 40874,
        "name": "INTELSAT 34 (IS-34)",
        "group": "intelsat",
        "lat": 0.0188019407738838,
        "lon": 122.80048879796986,
        "alt_km": 35784.341614064164,
        "timestamp": "2025-12-22T05:49:03.150515+00:00",
        "meta_object_name": "INTELSAT 34 (IS-34)",
        "meta_object_id": "2015-039A",
        "meta_epoch": "2025-12-21T04:31:38.456256",
        "meta_mean_motion": 1.00270737,
        "meta_eccentricity": 5.67e-05,
        "meta_inclination": 0.0114,
        "meta_ra_of_asc_node": 322.9713,
        "meta_arg_of_pericenter": 185.716,
        "meta_mean_anomaly": 313.7366,
        "meta_ephemeris_type": 0,
        "meta_classification_type": "U",
        "meta_norad_cat_id": 40874,
        "meta_element_set_no": 999,
        "meta_rev_at_epoch": 3784,
        "meta_bstar": 0,
        "meta_mean_motion_dot": -2.62e-06,
        "meta_mean_motion_ddot": 0,
        "tle_line1": "1 40874U 15039A   25355.18863954 -.00000262  00000+0  00000+0 0  9994",
        "tle_line2": "2 40874   0.0114 322.9713 0000567 185.7160 313.7366  1.00270737 37842"
      },
      "geometry": {
        "type": "Point",
        "coordinates": [
          122.80048879796986,
          0.0188019407738838
        ]
      }
    }
  ]
}